start=new Date('2023-05-20T00:00:00.000Z').valueOf();
sats=[{"FILE":"3912278","TLE_LINE2":"2 55451  43.0028 135.9177 0001355 274.8367  85.2320 15.02532694 16568","REF_FRAME":"TEME","RCS_SIZE":"LARGE","ECCENTRICITY":"0.00013550","REV_AT_EPOCH":"1656","APOAPSIS":"560.032","MEAN_ANOMALY":"85.2320","MEAN_MOTION_DDOT":"0.0000000000000","COUNTRY_CODE":"US","MEAN_MOTION":"15.02532694","PERIOD":"95.838","RA_OF_ASC_NODE":"135.9177","LAUNCH_DATE":"2023-02-02","EPOCH":"2023-05-19T16:41:39.328512","SEMIMAJOR_AXIS":"6937.227","EPHEMERIS_TYPE":"0","GP_ID":"232163876","TLE_LINE1":"1 55451U 23015C   23139.69559408  .00000282  00000-0  35924-4 0  9994","ARG_OF_PERICENTER":"274.8367","CENTER_NAME":"EARTH","INCLINATION":"43.0028","ELEMENT_SET_NO":"999","OBJECT_TYPE":"PAYLOAD","DECAY_DATE":null,"MEAN_ELEMENT_THEORY":"SGP4","BSTAR":"0.00003592400000","NORAD_CAT_ID":"55451","MEAN_MOTION_DOT":"0.00000282","TIME_SYSTEM":"UTC","PERIAPSIS":"558.152","OBJECT_ID":"2023-015C","OBJECT_NAME":"STARLINK-5656","CLASSIFICATION_TYPE":"U","SITE":"AFETR"},{"SITE":"AFETR","CLASSIFICATION_TYPE":"U","OBJECT_NAME":"STARLINK-5683","OBJECT_ID":"2023-015D","TIME_SYSTEM":"UTC","PERIAPSIS":"558.142","MEAN_MOTION_DOT":"0.00000241","NORAD_CAT_ID":"55452","BSTAR":"0.00003290800000","OBJECT_TYPE":"PAYLOAD","DECAY_DATE":null,"MEAN_ELEMENT_THEORY":"SGP4","ELEMENT_SET_NO":"999","INCLINATION":"43.0029","ARG_OF_PERICENTER":"276.7130","CENTER_NAME":"EARTH","EPHEMERIS_TYPE":"0","GP_ID":"232164598","TLE_LINE1":"1 55452U 23015D   23139.69004225  .00000241  00000-0  32908-4 0  9991","LAUNCH_DATE":"2023-02-02","EPOCH":"2023-05-19T16:33:39.650400","SEMIMAJOR_AXIS":"6937.222","PERIOD":"95.838","RA_OF_ASC_NODE":"135.8748","MEAN_MOTION":"15.02534133","MEAN_MOTION_DDOT":"0.0000000000000","COUNTRY_CODE":"US","REV_AT_EPOCH":"1656","MEAN_ANOMALY":"83.3557","APOAPSIS":"560.033","ECCENTRICITY":"0.00013630","RCS_SIZE":"LARGE","REF_FRAME":"TEME","TLE_LINE2":"2 55452  43.0029 135.8748 0001363 276.7130  83.3557 15.02534133 16562","FILE":"3912278"},{"BSTAR":"0.00004603200000","DECAY_DATE":null,"OBJECT_TYPE":"PAYLOAD","MEAN_ELEMENT_THEORY":"SGP4","NORAD_CAT_ID":"55453","INCLINATION":"43.0027","ELEMENT_SET_NO":"999","CLASSIFICATION_TYPE":"U","SITE":"AFETR","PERIAPSIS":"558.124","TIME_SYSTEM":"UTC","MEAN_MOTION_DOT":"0.00000418","OBJECT_NAME":"STARLINK-5684","OBJECT_ID":"2023-015E","RCS_SIZE":"LARGE","REF_FRAME":"TEME","APOAPSIS":"560.028","MEAN_ANOMALY":"87.7162","REV_AT_EPOCH":"1653","ECCENTRICITY":"0.00013720","FILE":"3912278","TLE_LINE2":"2 55453  43.0027 136.9413 0001372 272.3523  87.7162 15.02537829 16532","EPOCH":"2023-05-19T11:43:16.395744","LAUNCH_DATE":"2023-02-02","SEMIMAJOR_AXIS":"6937.211","ARG_OF_PERICENTER":"272.3523","CENTER_NAME":"EARTH","TLE_LINE1":"1 55453U 23015E   23139.48838421  .00000418  00000-0  46032-4 0  9991","GP_ID":"232163374","EPHEMERIS_TYPE":"0","MEAN_MOTION":"15.02537829","COUNTRY_CODE":"US","MEAN_MOTION_DDOT":"0.0000000000000","RA_OF_ASC_NODE":"136.9413","PERIOD":"95.838"},{"INCLINATION":"43.0011","ELEMENT_SET_NO":"999","BSTAR":"0.00393960000000","MEAN_ELEMENT_THEORY":"SGP4","DECAY_DATE":null,"OBJECT_TYPE":"PAYLOAD","NORAD_CAT_ID":"55454","PERIAPSIS":"559.342","TIME_SYSTEM":"UTC","MEAN_MOTION_DOT":"0.00052914","OBJECT_ID":"2023-015F","OBJECT_NAME":"STARLINK-5636","CLASSIFICATION_TYPE":"U","SITE":"AFETR","FILE":"3912278","TLE_LINE2":"2 55454  43.0011 135.8064 0001207 259.3037 100.7670 15.02179368 16561","RCS_SIZE":"LARGE","REF_FRAME":"TEME","MEAN_ANOMALY":"100.7670","APOAPSIS":"561.017","REV_AT_EPOCH":"1656","ECCENTRICITY":"0.00012070","MEAN_MOTION":"15.02179368","COUNTRY_CODE":"US","MEAN_MOTION_DDOT":"0.0000000000000","RA_OF_ASC_NODE":"135.8064","PERIOD":"95.861","LAUNCH_DATE":"2023-02-02","SEMIMAJOR_AXIS":"6938.314","EPOCH":"2023-05-19T16:20:34.977696","ARG_OF_PERICENTER":"259.3037","CENTER_NAME":"EARTH","TLE_LINE1":"1 55454U 23015F   23139.68096039  .00052914  00000-0  39396-2 0  9996","EPHEMERIS_TYPE":"0","GP_ID":"232163125"},{"PERIOD":"95.838","RA_OF_ASC_NODE":"135.9000","MEAN_MOTION_DDOT":"0.0000000000000","COUNTRY_CODE":"US","MEAN_MOTION":"15.02532423","EPHEMERIS_TYPE":"0","GP_ID":"232164376","TLE_LINE1":"1 55455U 23015G   23139.69337426  .00000135  00000-0  25037-4 0  9993","ARG_OF_PERICENTER":"273.8289","CENTER_NAME":"EARTH","LAUNCH_DATE":"2023-02-02","SEMIMAJOR_AXIS":"6937.228","EPOCH":"2023-05-19T16:38:27.536064","TLE_LINE2":"2 55455  43.0027 135.9000 0001469 273.8289  86.2385 15.02532423 16566","FILE":"3912278","ECCENTRICITY":"0.00014690","REV_AT_EPOCH":"1656","APOAPSIS":"560.112","MEAN_ANOMALY":"86.2385","REF_FRAME":"TEME","RCS_SIZE":"LARGE","OBJECT_ID":"2023-015G","OBJECT_NAME":"STARLINK-5680","MEAN_MOTION_DOT":"0.00000135","TIME_SYSTEM":"UTC","PERIAPSIS":"558.073","SITE":"AFETR","CLASSIFICATION_TYPE":"U","ELEMENT_SET_NO":"999","INCLINATION":"43.0027","NORAD_CAT_ID":"55455","DECAY_DATE":null,"OBJECT_TYPE":"PAYLOAD","MEAN_ELEMENT_THEORY":"SGP4","BSTAR":"0.00002503700000"},{"TLE_LINE1":"1 55456U 23015H   23139.68227345 -.00000620  00000-0 -30794-4 0  9998","EPHEMERIS_TYPE":"0","GP_ID":"232164099","CENTER_NAME":"EARTH","ARG_OF_PERICENTER":"270.9534","EPOCH":"2023-05-19T16:22:28.426080","LAUNCH_DATE":"2023-02-02","SEMIMAJOR_AXIS":"6937.229","RA_OF_ASC_NODE":"135.8157","PERIOD":"95.838","COUNTRY_CODE":"US","MEAN_MOTION_DDOT":"0.0000000000000","MEAN_MOTION":"15.02531793","ECCENTRICITY":"0.00012870","APOAPSIS":"559.987","MEAN_ANOMALY":"89.1160","REV_AT_EPOCH":"1656","REF_FRAME":"TEME","RCS_SIZE":"LARGE","TLE_LINE2":"2 55456  43.0031 135.8157 0001287 270.9534  89.1160 15.02531793 16565","FILE":"3912278","SITE":"AFETR","CLASSIFICATION_TYPE":"U","OBJECT_ID":"2023-015H","OBJECT_NAME":"STARLINK-5058","MEAN_MOTION_DOT":"-0.00000620","PERIAPSIS":"558.202","TIME_SYSTEM":"UTC","NORAD_CAT_ID":"55456","DECAY_DATE":null,"MEAN_ELEMENT_THEORY":"SGP4","OBJECT_TYPE":"PAYLOAD","BSTAR":"-0.00003079400000","ELEMENT_SET_NO":"999","INCLINATION":"43.0031"},{"MEAN_MOTION":"15.02533566","MEAN_MOTION_DDOT":"0.0000000000000","COUNTRY_CODE":"US","PERIOD":"95.838","RA_OF_ASC_NODE":"135.8330","EPOCH":"2023-05-19T16:25:40.164096","LAUNCH_DATE":"2023-02-02","SEMIMAJOR_AXIS":"6937.224","CENTER_NAME":"EARTH","ARG_OF_PERICENTER":"276.3838","GP_ID":"232162875","EPHEMERIS_TYPE":"0","TLE_LINE1":"1 55457U 23015J   23139.68449264  .00000382  00000-0  43356-4 0  9996","FILE":"3912278","TLE_LINE2":"2 55457  43.0031 135.8330 0001328 276.3838  83.6853 15.02533566 16560","RCS_SIZE":"LARGE","REF_FRAME":"TEME","REV_AT_EPOCH":"1656","MEAN_ANOMALY":"83.6853","APOAPSIS":"560.010","ECCENTRICITY":"0.00013280","TIME_SYSTEM":"UTC","PERIAPSIS":"558.168","MEAN_MOTION_DOT":"0.00000382","OBJECT_ID":"2023-015J","OBJECT_NAME":"STARLINK-5682","CLASSIFICATION_TYPE":"U","SITE":"AFETR","INCLINATION":"43.0031","ELEMENT_SET_NO":"999","BSTAR":"0.00004335600000","DECAY_DATE":null,"MEAN_ELEMENT_THEORY":"SGP4","OBJECT_TYPE":"PAYLOAD","NORAD_CAT_ID":"55457"},{"TLE_LINE2":"2 55458  43.0028 135.7143 0001313 271.1494  88.9198 15.02533558 16564","FILE":"3912278","REV_AT_EPOCH":"1656","APOAPSIS":"560.000","MEAN_ANOMALY":"88.9198","ECCENTRICITY":"0.00013130","RCS_SIZE":"LARGE","REF_FRAME":"TEME","PERIOD":"95.838","RA_OF_ASC_NODE":"135.7143","MEAN_MOTION":"15.02533558","MEAN_MOTION_DDOT":"0.0000000000000","COUNTRY_CODE":"US","CENTER_NAME":"EARTH","ARG_OF_PERICENTER":"271.1494","GP_ID":"232163625","EPHEMERIS_TYPE":"0","TLE_LINE1":"1 55458U 23015K   23139.66895384 -.00000438  00000-0 -17367-4 0  9990","LAUNCH_DATE":"2023-02-02","SEMIMAJOR_AXIS":"6937.224","EPOCH":"2023-05-19T16:03:17.611776","ELEMENT_SET_NO":"999","INCLINATION":"43.0028","NORAD_CAT_ID":"55458","BSTAR":"-0.00001736700000","DECAY_DATE":null,"OBJECT_TYPE":"PAYLOAD","MEAN_ELEMENT_THEORY":"SGP4","OBJECT_ID":"2023-015K","OBJECT_NAME":"STARLINK-5020","TIME_SYSTEM":"UTC","PERIAPSIS":"558.178","MEAN_MOTION_DOT":"-0.00000438","SITE":"AFETR","CLASSIFICATION_TYPE":"U"},{"FILE":"3912278","TLE_LINE2":"2 55459  43.0028 135.7571 0001357 272.1366  87.9321 15.02533291 16568","RCS_SIZE":"LARGE","REF_FRAME":"TEME","APOAPSIS":"560.031","MEAN_ANOMALY":"87.9321","REV_AT_EPOCH":"1656","ECCENTRICITY":"0.00013570","MEAN_MOTION":"15.02533291","COUNTRY_CODE":"US","MEAN_MOTION_DDOT":"0.0000000000000","RA_OF_ASC_NODE":"135.7571","PERIOD":"95.838","EPOCH":"2023-05-19T16:11:17.241504","LAUNCH_DATE":"2023-02-02","SEMIMAJOR_AXIS":"6937.225","ARG_OF_PERICENTER":"272.1366","CENTER_NAME":"EARTH","TLE_LINE1":"1 55459U 23015L   23139.67450511 -.00000291  00000-0 -64997-5 0  9990","GP_ID":"232163877","EPHEMERIS_TYPE":"0","INCLINATION":"43.0028","ELEMENT_SET_NO":"999","BSTAR":"-0.00000649970000","OBJECT_TYPE":"PAYLOAD","DECAY_DATE":null,"MEAN_ELEMENT_THEORY":"SGP4","NORAD_CAT_ID":"55459","PERIAPSIS":"558.148","TIME_SYSTEM":"UTC","MEAN_MOTION_DOT":"-0.00000291","OBJECT_NAME":"STARLINK-5669","OBJECT_ID":"2023-015L","CLASSIFICATION_TYPE":"U","SITE":"AFETR"},{"ELEMENT_SET_NO":"999","INCLINATION":"43.0030","NORAD_CAT_ID":"55460","OBJECT_TYPE":"PAYLOAD","DECAY_DATE":null,"MEAN_ELEMENT_THEORY":"SGP4","BSTAR":"0.00006194700000","OBJECT_ID":"2023-015M","OBJECT_NAME":"STARLINK-5678","MEAN_MOTION_DOT":"0.00000633","TIME_SYSTEM":"UTC","PERIAPSIS":"558.075","SITE":"AFETR","CLASSIFICATION_TYPE":"U","TLE_LINE2":"2 55460  43.0030 135.7316 0001436 270.9024  89.1654 15.02539368 16569","FILE":"3912278","ECCENTRICITY":"0.00014360","REV_AT_EPOCH":"1656","APOAPSIS":"560.067","MEAN_ANOMALY":"89.1654","REF_FRAME":"TEME","RCS_SIZE":"LARGE","PERIOD":"95.838","RA_OF_ASC_NODE":"135.7316","MEAN_MOTION_DDOT":"0.0000000000000","COUNTRY_CODE":"US","MEAN_MOTION":"15.02539368","GP_ID":"232164599","EPHEMERIS_TYPE":"0","TLE_LINE1":"1 55460U 23015M   23139.67116595  .00000633  00000-0  61947-4 0  9992","ARG_OF_PERICENTER":"270.9024","CENTER_NAME":"EARTH","EPOCH":"2023-05-19T16:06:28.738080","LAUNCH_DATE":"2023-02-02","SEMIMAJOR_AXIS":"6937.206"}];
